{
  "type": "FeatureCollection",
  "features": [
    {
      "type": "Feature",
      "properties": {
        "norad_id": 46805,
        "name": "COSMOS 2547 (705K)",
        "group": "glo-ops",
        "lat": -19.247394460123257,
        "lon": 28.182047054778153,
        "alt_km": 19118.729492663188,
        "timestamp": "2025-12-14T18:52:55.764505+00:00",
        "meta_object_name": "COSMOS 2547 (705K)",
        "meta_object_id": "2020-075A",
        "meta_epoch": "2025-12-13T02:47:35.788416",
        "meta_mean_motion": 2.13100044,
        "meta_eccentricity": 0.00062786,
        "meta_inclination": 64.5959,
        "meta_ra_of_asc_node": 198.6839,
        "meta_arg_of_pericenter": 228.7725,
        "meta_mean_anomaly": 131.2461,
        "meta_ephemeris_type": 0,
        "meta_classification_type": "U",
        "meta_norad_cat_id": 46805,
        "meta_element_set_no": 999,
        "meta_rev_at_epoch": 3994,
        "meta_bstar": 0,
        "meta_mean_motion_dot": 7.7e-07,
        "meta_mean_motion_ddot": 0,
        "tle_line1": "1 46805U 20075A   25347.11638644  .00000077  00000+0  00000+0 0  9993",
        "tle_line2": "2 46805  64.5959 198.6839 0006278 228.7725 131.2461  2.13100044 39941"
      },
      "geometry": {
        "type": "Point",
        "coordinates": [
          28.182047054778153,
          -19.247394460123257
        ]
      }
    },
    {
      "type": "Feature",
      "properties": {
        "norad_id": 52984,
        "name": "COSMOS 2557 (706K)",
        "group": "glo-ops",
        "lat": 60.386089054948805,
        "lon": 18.427168289456464,
        "alt_km": 19155.67206367286,
        "timestamp": "2025-12-14T18:52:55.764516+00:00",
        "meta_object_name": "COSMOS 2557 (706K)",
        "meta_object_id": "2022-075A",
        "meta_epoch": "2025-12-07T04:21:00.419904",
        "meta_mean_motion": 2.13101754,
        "meta_eccentricity": 0.00137049,
        "meta_inclination": 64.4129,
        "meta_ra_of_asc_node": 321.247,
        "meta_arg_of_pericenter": 276.9,
        "meta_mean_anomaly": 82.939,
        "meta_ephemeris_type": 0,
        "meta_classification_type": "U",
        "meta_norad_cat_id": 52984,
        "meta_element_set_no": 999,
        "meta_rev_at_epoch": 2662,
        "meta_bstar": 0,
        "meta_mean_motion_dot": -5.2e-07,
        "meta_mean_motion_ddot": 0,
        "tle_line1": "1 52984U 22075A   25341.18125486 -.00000052  00000+0  00000+0 0  9990",
        "tle_line2": "2 52984  64.4129 321.2470 0013704 276.9000  82.9390  2.13101754 26625"
      },
      "geometry": {
        "type": "Point",
        "coordinates": [
          18.427168289456464,
          60.386089054948805
        ]
      }
    },
    {
      "type": "Feature",
      "properties": {
        "norad_id": 54031,
        "name": "COSMOS 2559 (707K)",
        "group": "glo-ops",
        "lat": -29.80361796963818,
        "lon": 157.00784585068894,
        "alt_km": 19106.000089169404,
        "timestamp": "2025-12-14T18:52:55.764527+00:00",
        "meta_object_name": "COSMOS 2559 (707K)",
        "meta_object_id": "2022-130A",
        "meta_epoch": "2025-12-13T13:40:56.182944",
        "meta_mean_motion": 2.13101371,
        "meta_eccentricity": 0.00117769,
        "meta_inclination": 64.3818,
        "meta_ra_of_asc_node": 321.1118,
        "meta_arg_of_pericenter": 192.371,
        "meta_mean_anomaly": 167.5998,
        "meta_ephemeris_type": 0,
        "meta_classification_type": "U",
        "meta_norad_cat_id": 54031,
        "meta_element_set_no": 999,
        "meta_rev_at_epoch": 2473,
        "meta_bstar": 0,
        "meta_mean_motion_dot": -6.4e-07,
        "meta_mean_motion_ddot": 0,
        "tle_line1": "1 54031U 22130A   25347.57009471 -.00000064  00000+0  00000+0 0  9994",
        "tle_line2": "2 54031  64.3818 321.1118 0011776 192.3710 167.5998  2.13101371 24737"
      },
      "geometry": {
        "type": "Point",
        "coordinates": [
          157.00784585068894,
          -29.80361796963818
        ]
      }
    },
    {
      "type": "Feature",
      "properties": {
        "norad_id": 54377,
        "name": "COSMOS 2564 (761)",
        "group": "glo-ops",
        "lat": -24.292237207940936,
        "lon": -173.47134997573116,
        "alt_km": 19146.93866984692,
        "timestamp": "2025-12-14T18:52:55.764538+00:00",
        "meta_object_name": "COSMOS 2564 (761)",
        "meta_object_id": "2022-161A",
        "meta_epoch": "2025-12-13T09:56:35.350656",
        "meta_mean_motion": 2.13102091,
        "meta_eccentricity": 0.00086002,
        "meta_inclination": 64.7383,
        "meta_ra_of_asc_node": 198.8765,
        "meta_arg_of_pericenter": 204.6894,
        "meta_mean_anomaly": 155.3431,
        "meta_ephemeris_type": 0,
        "meta_classification_type": "U",
        "meta_norad_cat_id": 54377,
        "meta_element_set_no": 999,
        "meta_rev_at_epoch": 2367,
        "meta_bstar": 0,
        "meta_mean_motion_dot": 8.1e-07,
        "meta_mean_motion_ddot": 0,
        "tle_line1": "1 54377U 22161A   25347.41429804  .00000081  00000+0  00000+0 0  9998",
        "tle_line2": "2 54377  64.7383 198.8765 0008600 204.6894 155.3431  2.13102091 23679"
      },
      "geometry": {
        "type": "Point",
        "coordinates": [
          -173.47134997573116,
          -24.292237207940936
        ]
      }
    },
    {
      "type": "Feature",
      "properties": {
        "norad_id": 57517,
        "name": "COSMOS 2569 (703K)",
        "group": "glo-ops",
        "lat": -33.44865149164343,
        "lon": 61.089152238510145,
        "alt_km": 19112.327251110197,
        "timestamp": "2025-12-14T18:52:55.764549+00:00",
        "meta_object_name": "COSMOS 2569 (703K)",
        "meta_object_id": "2023-114A",
        "meta_epoch": "2025-12-12T23:00:06.356160",
        "meta_mean_motion": 2.13103989,
        "meta_eccentricity": 0.00105383,
        "meta_inclination": 65.1943,
        "meta_ra_of_asc_node": 78.9061,
        "meta_arg_of_pericenter": 287.004,
        "meta_mean_anomaly": 72.8956,
        "meta_ephemeris_type": 0,
        "meta_classification_type": "U",
        "meta_norad_cat_id": 57517,
        "meta_element_set_no": 999,
        "meta_rev_at_epoch": 1829,
        "meta_bstar": 0,
        "meta_mean_motion_dot": -4.5e-07,
        "meta_mean_motion_ddot": 0,
        "tle_line1": "1 57517U 23114A   25346.95840690 -.00000045  00000+0  00000+0 0  9995",
        "tle_line2": "2 57517  65.1943  78.9061 0010538 287.0040  72.8956  2.13103989 18297"
      },
      "geometry": {
        "type": "Point",
        "coordinates": [
          61.089152238510145,
          -33.44865149164343
        ]
      }
    },
    {
      "type": "Feature",
      "properties": {
        "norad_id": 63130,
        "name": "COSMOS 2584 (704K)",
        "group": "glo-ops",
        "lat": 43.637468343043544,
        "lon": 105.48547131480497,
        "alt_km": 19143.90433811728,
        "timestamp": "2025-12-14T18:52:55.764560+00:00",
        "meta_object_name": "COSMOS 2584 (704K)",
        "meta_object_id": "2025-042A",
        "meta_epoch": "2025-12-12T20:16:48.196992",
        "meta_mean_motion": 2.13103011,
        "meta_eccentricity": 0.00076618,
        "meta_inclination": 64.9761,
        "meta_ra_of_asc_node": 79.1423,
        "meta_arg_of_pericenter": 217.4089,
        "meta_mean_anomaly": 142.5525,
        "meta_ephemeris_type": 0,
        "meta_classification_type": "U",
        "meta_norad_cat_id": 63130,
        "meta_element_set_no": 999,
        "meta_rev_at_epoch": 607,
        "meta_bstar": 0,
        "meta_mean_motion_dot": -4.4e-07,
        "meta_mean_motion_ddot": 0,
        "tle_line1": "1 63130U 25042A   25346.84500228 -.00000044  00000+0  00000+0 0  9992",
        "tle_line2": "2 63130  64.9761  79.1423 0007661 217.4089 142.5525  2.13103011  6074"
      },
      "geometry": {
        "type": "Point",
        "coordinates": [
          105.48547131480497,
          43.637468343043544
        ]
      }
    },
    {
      "type": "Feature",
      "properties": {
        "norad_id": 65590,
        "name": "COSMOS 2596 (708K)",
        "group": "glo-ops",
        "lat": 10.805245297257523,
        "lon": 136.2234542399272,
        "alt_km": 19155.92502042115,
        "timestamp": "2025-12-14T18:52:55.764572+00:00",
        "meta_object_name": "COSMOS 2596 (708K)",
        "meta_object_id": "2025-206B",
        "meta_epoch": "2025-12-13T20:50:15.808128",
        "meta_mean_motion": 2.13100516,
        "meta_eccentricity": 0.00140406,
        "meta_inclination": 64.7435,
        "meta_ra_of_asc_node": 321.4347,
        "meta_arg_of_pericenter": 306.4952,
        "meta_mean_anomaly": 236.937,
        "meta_ephemeris_type": 0,
        "meta_classification_type": "U",
        "meta_norad_cat_id": 65590,
        "meta_element_set_no": 999,
        "meta_rev_at_epoch": 196,
        "meta_bstar": 0,
        "meta_mean_motion_dot": -6.4e-07,
        "meta_mean_motion_ddot": 0,
        "tle_line1": "1 65590U 25206B   25347.86823852 -.00000064  00000+0  00000+0 0  9992",
        "tle_line2": "2 65590  64.7435 321.4347 0014040 306.4952 236.9370  2.13100516  1963"
      },
      "geometry": {
        "type": "Point",
        "coordinates": [
          136.2234542399272,
          10.805245297257523
        ]
      }
    }
  ]
}